COSMOS 2242             
1 22626U 93024A   26063.08631526  .00002348  00000+0  20393-3 0  9990
2 22626  82.5154 272.0778 0015557 328.9179  31.1121 14.96522155779552
SL-16 R/B               
1 22803U 93059B   26063.11273095  .00000007  00000+0  27134-4 0  9993
2 22803  70.9920  22.8859 0018789 224.4621 135.4995 14.17232272678741
ARIANE 40 R/B           
1 22830U 93061H   26063.11212901  .00000297  00000+0  12473-3 0  9995
2 22830  98.4929 132.1097 0009657 303.5201  56.5060 14.32857702693304
COSMOS 2278             
1 23087U 94023A   26062.79837318  .00000316  00000+0  18962-3 0  9998
2 23087  71.0542 187.4212 0007655  25.2253 334.9242 14.14375747643977
SL-16 R/B               
1 23088U 94023B   26063.13025335 -.00000112  00000+0 -33378-4 0  9991
2 23088  70.9987  82.5635 0005629 291.0774  68.9747 14.15013412645305
SL-16 R/B               
1 23343U 94074B   26063.11317750  .00000712  00000+0  10210-3 0  9997
2 23343  97.7116  94.1567 0005417 232.0282 195.5039 14.79400789686423
SL-16 R/B               
1 23405U 94077B   26063.11403559 -.00000237  00000+0 -96478-4 0  9997
2 23405  70.9851   4.2178 0003414 220.0311 140.0560 14.15562126615448
ARIANE 40+ R/B          
1 23561U 95021B   26063.18078909  .00000433  00000+0  15201-3 0  9994
2 23561  98.4508 134.7378 0007402 151.3190 234.2081 14.39768032618456
SL-16 R/B               
1 23705U 95058B   26062.76741984 -.00000007  00000+0  20758-4 0  9999
2 23705  71.0211 192.6874 0011013 136.2562 223.9436 14.15492756567011
SL-16 R/B               
1 24298U 96051B   26062.79208696  .00000092  00000+0  76456-4 0  9991
2 24298  70.7596 187.7206 0015610 156.7831 203.3997 14.12413839520811
ORBVIEW 2 (SEASTAR)     
1 24883U 97037A   26063.05082438  .00000463  00000+0  17722-3 0  9992
2 24883  98.8556 227.2135 0003180  83.3091 276.8455 14.35490105507669
SL-16 R/B               
1 25400U 98043G   26062.83787562  .00000085  00000+0  54581-4 0  9996
2 25400  98.8245  16.1602 0010484  36.4826 323.7065 14.26048201438156
SL-16 R/B               
1 25407U 98045B   26062.78126201 -.00000206  00000+0 -80139-4 0  9991
2 25407  71.0112 193.9979 0006394  17.0539 343.0798 14.16189420426266
ISS (ZARYA)             
1 25544U 98067A   26063.15679535  .00010207  00000+0  19684-3 0  9998
2 25544  51.6316  99.7104 0008201 155.0339 205.1047 15.48434477555473
CZ-4B R/B               
1 25732U 99025C   26063.09064314  .00000084  00000+0  61276-4 0  9995
2 25732  98.6638 107.5046 0037062   2.7704  50.8330 14.18264047387376
OKEAN-O                 
1 25860U 99039A   26063.10929831  .00000960  00000+0  13276-3 0  9997
2 25860  97.9453 123.0572 0001430  70.8180 289.3186 14.80325385433569
SL-16 R/B               
1 25861U 99039B   26063.16195113  .00000848  00000+0  11439-3 0  9996
2 25861  97.9977 122.2666 0013446 275.9477  84.0203 14.81723034436043
