[{"OBJECT_NAME":"COSMOS 2242","OBJECT_ID":"1993-024A","EPOCH":"2026-03-04T02:04:17.638464","MEAN_MOTION":14.96522155,"ECCENTRICITY":0.0015557,"INCLINATION":82.5154,"RA_OF_ASC_NODE":272.0778,"ARG_OF_PERICENTER":328.9179,"MEAN_ANOMALY":31.1121,"EPHEMERIS_TYPE":0,"CLASSIFICATION_TYPE":"U","NORAD_CAT_ID":22626,"ELEMENT_SET_NO":999,"REV_AT_EPOCH":77955,"BSTAR":0.00020393,"MEAN_MOTION_DOT":2.348e-5,"MEAN_MOTION_DDOT":0},{"OBJECT_NAME":"SL-16 R/B","OBJECT_ID":"1993-059B","EPOCH":"2026-03-04T02:42:19.954080","MEAN_MOTION":14.17232272,"ECCENTRICITY":0.0018789,"INCLINATION":70.992,"RA_OF_ASC_NODE":22.8859,"ARG_OF_PERICENTER":224.4621,"MEAN_ANOMALY":135.4995,"EPHEMERIS_TYPE":0,"CLASSIFICATION_TYPE":"U","NORAD_CAT_ID":22803,"ELEMENT_SET_NO":999,"REV_AT_EPOCH":67874,"BSTAR":2.7134e-5,"MEAN_MOTION_DOT":7.0e-8,"MEAN_MOTION_DDOT":0},{"OBJECT_NAME":"ARIANE 40 R/B","OBJECT_ID":"1993-061H","EPOCH":"2026-03-04T02:41:27.946464","MEAN_MOTION":14.32857702,"ECCENTRICITY":0.0009657,"INCLINATION":98.4929,"RA_OF_ASC_NODE":132.1097,"ARG_OF_PERICENTER":303.5201,"MEAN_ANOMALY":56.506,"EPHEMERIS_TYPE":0,"CLASSIFICATION_TYPE":"U","NORAD_CAT_ID":22830,"ELEMENT_SET_NO":999,"REV_AT_EPOCH":69330,"BSTAR":0.00012473,"MEAN_MOTION_DOT":2.97e-6,"MEAN_MOTION_DDOT":0},{"OBJECT_NAME":"COSMOS 2278","OBJECT_ID":"1994-023A","EPOCH":"2026-03-03T19:09:39.442752","MEAN_MOTION":14.14375747,"ECCENTRICITY":0.00076559,"INCLINATION":71.0542,"RA_OF_ASC_NODE":187.4212,"ARG_OF_PERICENTER":25.2253,"MEAN_ANOMALY":334.9242,"EPHEMERIS_TYPE":0,"CLASSIFICATION_TYPE":"U","NORAD_CAT_ID":23087,"ELEMENT_SET_NO":999,"REV_AT_EPOCH":64397,"BSTAR":0.00018961696,"MEAN_MOTION_DOT":3.16e-6,"MEAN_MOTION_DDOT":0},{"OBJECT_NAME":"SL-16 R/B","OBJECT_ID":"1994-023B","EPOCH":"2026-03-04T03:07:33.889440","MEAN_MOTION":14.15013412,"ECCENTRICITY":0.0005629,"INCLINATION":70.9987,"RA_OF_ASC_NODE":82.5635,"ARG_OF_PERICENTER":291.0774,"MEAN_ANOMALY":68.9747,"EPHEMERIS_TYPE":0,"CLASSIFICATION_TYPE":"U","NORAD_CAT_ID":23088,"ELEMENT_SET_NO":999,"REV_AT_EPOCH":64530,"BSTAR":-3.3378e-5,"MEAN_MOTION_DOT":-1.12e-6,"MEAN_MOTION_DDOT":0},{"OBJECT_NAME":"SL-16 R/B","OBJECT_ID":"1994-074B","EPOCH":"2026-03-04T02:42:58.536000","MEAN_MOTION":14.79400789,"ECCENTRICITY":0.0005417,"INCLINATION":97.7116,"RA_OF_ASC_NODE":94.1567,"ARG_OF_PERICENTER":232.0282,"MEAN_ANOMALY":195.5039,"EPHEMERIS_TYPE":0,"CLASSIFICATION_TYPE":"U","NORAD_CAT_ID":23343,"ELEMENT_SET_NO":999,"REV_AT_EPOCH":68642,"BSTAR":0.0001021,"MEAN_MOTION_DOT":7.12e-6,"MEAN_MOTION_DDOT":0},{"OBJECT_NAME":"SL-16 R/B","OBJECT_ID":"1994-077B","EPOCH":"2026-03-04T02:44:12.674976","MEAN_MOTION":14.15562126,"ECCENTRICITY":0.0003414,"INCLINATION":70.9851,"RA_OF_ASC_NODE":4.2178,"ARG_OF_PERICENTER":220.0311,"MEAN_ANOMALY":140.056,"EPHEMERIS_TYPE":0,"CLASSIFICATION_TYPE":"U","NORAD_CAT_ID":23405,"ELEMENT_SET_NO":999,"REV_AT_EPOCH":61544,"BSTAR":-9.6478e-5,"MEAN_MOTION_DOT":-2.37e-6,"MEAN_MOTION_DDOT":0},{"OBJECT_NAME":"ARIANE 40+ R/B","OBJECT_ID":"1995-021B","EPOCH":"2026-03-04T04:20:20.177376","MEAN_MOTION":14.39768032,"ECCENTRICITY":0.0007402,"INCLINATION":98.4508,"RA_OF_ASC_NODE":134.7378,"ARG_OF_PERICENTER":151.319,"MEAN_ANOMALY":234.2081,"EPHEMERIS_TYPE":0,"CLASSIFICATION_TYPE":"U","NORAD_CAT_ID":23561,"ELEMENT_SET_NO":999,"REV_AT_EPOCH":61845,"BSTAR":0.00015201,"MEAN_MOTION_DOT":4.33e-6,"MEAN_MOTION_DDOT":0},{"OBJECT_NAME":"SL-16 R/B","OBJECT_ID":"1995-058B","EPOCH":"2026-03-03T18:25:05.074176","MEAN_MOTION":14.15492756,"ECCENTRICITY":0.0011013,"INCLINATION":71.0211,"RA_OF_ASC_NODE":192.6874,"ARG_OF_PERICENTER":136.2562,"MEAN_ANOMALY":223.9436,"EPHEMERIS_TYPE":0,"CLASSIFICATION_TYPE":"U","NORAD_CAT_ID":23705,"ELEMENT_SET_NO":999,"REV_AT_EPOCH":56701,"BSTAR":2.0758e-5,"MEAN_MOTION_DOT":-7.0e-8,"MEAN_MOTION_DDOT":0},{"OBJECT_NAME":"SL-16 R/B","OBJECT_ID":"1996-051B","EPOCH":"2026-03-03T19:00:36.313344","MEAN_MOTION":14.12413839,"ECCENTRICITY":0.001561,"INCLINATION":70.7596,"RA_OF_ASC_NODE":187.7206,"ARG_OF_PERICENTER":156.7831,"MEAN_ANOMALY":203.3997,"EPHEMERIS_TYPE":0,"CLASSIFICATION_TYPE":"U","NORAD_CAT_ID":24298,"ELEMENT_SET_NO":999,"REV_AT_EPOCH":52081,"BSTAR":7.6456e-5,"MEAN_MOTION_DOT":9.2e-7,"MEAN_MOTION_DDOT":0},{"OBJECT_NAME":"ORBVIEW 2 (SEASTAR)","OBJECT_ID":"1997-037A","EPOCH":"2026-03-04T01:13:11.226432","MEAN_MOTION":14.35490105,"ECCENTRICITY":0.000318,"INCLINATION":98.8556,"RA_OF_ASC_NODE":227.2135,"ARG_OF_PERICENTER":83.3091,"MEAN_ANOMALY":276.8455,"EPHEMERIS_TYPE":0,"CLASSIFICATION_TYPE":"U","NORAD_CAT_ID":24883,"ELEMENT_SET_NO":999,"REV_AT_EPOCH":50766,"BSTAR":0.00017722,"MEAN_MOTION_DOT":4.63e-6,"MEAN_MOTION_DDOT":0},{"OBJECT_NAME":"SL-16 R/B","OBJECT_ID":"1998-043G","EPOCH":"2026-03-03T20:06:32.453568","MEAN_MOTION":14.26048201,"ECCENTRICITY":0.0010484,"INCLINATION":98.8245,"RA_OF_ASC_NODE":16.1602,"ARG_OF_PERICENTER":36.4826,"MEAN_ANOMALY":323.7065,"EPHEMERIS_TYPE":0,"CLASSIFICATION_TYPE":"U","NORAD_CAT_ID":25400,"ELEMENT_SET_NO":999,"REV_AT_EPOCH":43815,"BSTAR":5.4581e-5,"MEAN_MOTION_DOT":8.5e-7,"MEAN_MOTION_DDOT":0},{"OBJECT_NAME":"SL-16 R/B","OBJECT_ID":"1998-045B","EPOCH":"2026-03-03T18:45:01.037664","MEAN_MOTION":14.1618942,"ECCENTRICITY":0.00063946,"INCLINATION":71.0112,"RA_OF_ASC_NODE":193.9979,"ARG_OF_PERICENTER":17.0539,"MEAN_ANOMALY":343.0798,"EPHEMERIS_TYPE":0,"CLASSIFICATION_TYPE":"U","NORAD_CAT_ID":25407,"ELEMENT_SET_NO":999,"REV_AT_EPOCH":42626,"BSTAR":-8.0139162e-5,"MEAN_MOTION_DOT":-2.06e-6,"MEAN_MOTION_DDOT":0},{"OBJECT_NAME":"ISS (ZARYA)","OBJECT_ID":"1998-067A","EPOCH":"2026-03-04T03:45:47.118240","MEAN_MOTION":15.48434477,"ECCENTRICITY":0.0008201,"INCLINATION":51.6316,"RA_OF_ASC_NODE":99.7104,"ARG_OF_PERICENTER":155.0339,"MEAN_ANOMALY":205.1047,"EPHEMERIS_TYPE":0,"CLASSIFICATION_TYPE":"U","NORAD_CAT_ID":25544,"ELEMENT_SET_NO":999,"REV_AT_EPOCH":55547,"BSTAR":0.00019684,"MEAN_MOTION_DOT":0.00010207,"MEAN_MOTION_DDOT":0},{"OBJECT_NAME":"CZ-4B R/B","OBJECT_ID":"1999-025C","EPOCH":"2026-03-04T02:10:31.567296","MEAN_MOTION":14.18264047,"ECCENTRICITY":0.0037062,"INCLINATION":98.6638,"RA_OF_ASC_NODE":107.5046,"ARG_OF_PERICENTER":2.7704,"MEAN_ANOMALY":50.833,"EPHEMERIS_TYPE":0,"CLASSIFICATION_TYPE":"U","NORAD_CAT_ID":25732,"ELEMENT_SET_NO":999,"REV_AT_EPOCH":38737,"BSTAR":6.1276e-5,"MEAN_MOTION_DOT":8.4e-7,"MEAN_MOTION_DDOT":0},{"OBJECT_NAME":"OKEAN-O","OBJECT_ID":"1999-039A","EPOCH":"2026-03-04T02:37:23.373984","MEAN_MOTION":14.80325385,"ECCENTRICITY":0.000143,"INCLINATION":97.9453,"RA_OF_ASC_NODE":123.0572,"ARG_OF_PERICENTER":70.818,"MEAN_ANOMALY":289.3186,"EPHEMERIS_TYPE":0,"CLASSIFICATION_TYPE":"U","NORAD_CAT_ID":25860,"ELEMENT_SET_NO":999,"REV_AT_EPOCH":43356,"BSTAR":0.00013276,"MEAN_MOTION_DOT":9.6e-6,"MEAN_MOTION_DDOT":0},{"OBJECT_NAME":"SL-16 R/B","OBJECT_ID":"1999-039B","EPOCH":"2026-03-04T03:53:12.577632","MEAN_MOTION":14.81723034,"ECCENTRICITY":0.0013446,"INCLINATION":97.9977,"RA_OF_ASC_NODE":122.2666,"ARG_OF_PERICENTER":275.9477,"MEAN_ANOMALY":84.0203,"EPHEMERIS_TYPE":0,"CLASSIFICATION_TYPE":"U","NORAD_CAT_ID":25861,"ELEMENT_SET_NO":999,"REV_AT_EPOCH":43604,"BSTAR":0.00011439,"MEAN_MOTION_DOT":8.48e-6,"MEAN_MOTION_DDOT":0}]
